[{"OBJECT_NAME":"STARLINK-2383","OBJECT_ID":"2021-018R","EPOCH":"2026-03-09T17:59:04.647840","MEAN_MOTION":15.29365657,"ECCENTRICITY":0.0001466,"INCLINATION":53.1561,"RA_OF_ASC_NODE":254.8518,"ARG_OF_PERICENTER":128.9054,"MEAN_ANOMALY":231.2078,"EPHEMERIS_TYPE":0,"CLASSIFICATION_TYPE":"U","NORAD_CAT_ID":47802,"ELEMENT_SET_NO":999,"REV_AT_EPOCH":27656,"BSTAR":2.0905209e-5,"MEAN_MOTION_DOT":2.47e-6,"MEAN_MOTION_DDOT":0},{"OBJECT_NAME":"NUSAT-48 (HENRIETTA LEAVITT)","OBJECT_ID":"2024-149AG","EPOCH":"2026-03-09T19:19:17.269536","MEAN_MOTION":15.29812597,"ECCENTRICITY":0.00027538,"INCLINATION":97.3923,"RA_OF_ASC_NODE":150.8264,"ARG_OF_PERICENTER":263.3026,"MEAN_ANOMALY":96.7901,"EPHEMERIS_TYPE":0,"CLASSIFICATION_TYPE":"U","NORAD_CAT_ID":60498,"ELEMENT_SET_NO":999,"REV_AT_EPOCH":8694,"BSTAR":0.00045211745,"MEAN_MOTION_DOT":0.00012988,"MEAN_MOTION_DDOT":0}]
